[{"OBJECT_NAME":"ICEYE-X7","OBJECT_ID":"2020-068L","EPOCH":"2026-03-09T22:52:28.702272","MEAN_MOTION":15.29152508,"ECCENTRICITY":0.00068409,"INCLINATION":97.7412,"RA_OF_ASC_NODE":31.2076,"ARG_OF_PERICENTER":332.3045,"MEAN_ANOMALY":27.7829,"EPHEMERIS_TYPE":0,"CLASSIFICATION_TYPE":"U","NORAD_CAT_ID":46496,"ELEMENT_SET_NO":999,"REV_AT_EPOCH":29961,"BSTAR":0.0005654802,"MEAN_MOTION_DOT":0.00015947,"MEAN_MOTION_DDOT":0},{"OBJECT_NAME":"STARLINK-30763","OBJECT_ID":"2023-166P","EPOCH":"2026-03-09T15:41:28.640544","MEAN_MOTION":15.30186508,"ECCENTRICITY":0.00012852,"INCLINATION":53.1606,"RA_OF_ASC_NODE":207.2059,"ARG_OF_PERICENTER":82.005,"MEAN_ANOMALY":278.1096,"EPHEMERIS_TYPE":0,"CLASSIFICATION_TYPE":"U","NORAD_CAT_ID":58163,"ELEMENT_SET_NO":999,"REV_AT_EPOCH":13334,"BSTAR":4.3178314e-5,"MEAN_MOTION_DOT":9.19e-6,"MEAN_MOTION_DDOT":0}]
